H1 CPF  1  MCC 2022  6 27 14  6781 larets
H2  0304206 5557    27944 2022 06 26 23 45 00 2022 07 01 23 57 00   180 1 1  0 0 0
H9
10 0 59760 85500.000000 0      3884911.146      1782671.960      5623854.898
10 0 59760 85680.000000 0      3014626.835       988733.207      6309856.658
10 0 59760 85860.000000 0      2014111.096       183518.221      6765539.180
10 0 59760 86040.000000 0       919766.245      -600849.795      6974332.869
10 0 59760 86220.000000 0      -227815.752     -1334019.637      6928604.715
10 0 59761     0.000000 0     -1385350.779     -1988576.904      6629923.165
10 0 59761   180.000000 0     -2508477.534     -2541064.242      6089012.728
10 0 59761   360.000000 0     -3553440.255     -2972825.066      5325410.329
10 0 59761   540.000000 0     -4478804.206     -3270653.332      4366819.967
10 0 59761   720.000000 0     -5247130.330     -3427215.934      3248153.871
10 0 59761   900.000000 0     -5826534.039     -3441226.948      2010294.822
10 0 59761  1080.000000 0     -6192063.698     -3317367.114       698609.625
10 0 59761  1260.000000 0     -6326820.102     -3065941.980      -638742.200
10 0 59761  1440.000000 0     -6222751.920     -2702291.442     -1952629.706
10 0 59761  1620.000000 0     -5881075.294     -2245979.225     -3194820.846
10 0 59761  1800.000000 0     -5312295.661     -1719808.908     -4319804.518
10 0 59761  1980.000000 0     -4535840.710     -1148722.840     -5286484.995
10 0 59761  2160.000000 0     -3579329.286      -558641.672     -6059680.238
10 0 59761  2340.000000 0     -2477518.161        24696.882     -6611367.232
10 0 59761  2520.000000 0     -1270986.255       576843.130     -6921640.342
10 0 59761  2700.000000 0        -4615.123      1075638.145     -6979369.113
10 0 59761  2880.000000 0      1274074.683      1502083.890     -6782553.154
10 0 59761  3060.000000 0      2516686.726      1841053.646     -6338381.905
10 0 59761  3240.000000 0      3675765.264      2081824.864     -5662986.971
10 0 59761  3420.000000 0      4706599.225      2218414.084     -4780890.395
10 0 59761  3600.000000 0      5568959.331      2249706.843     -3724163.342
10 0 59761  3780.000000 0      6228702.718      2179375.772     -2531301.603
10 0 59761  3960.000000 0      6659174.458      2015588.079     -1245849.188
10 0 59761  4140.000000 0      6842336.430      1770512.833        85194.144
10 0 59761  4320.000000 0      6769556.062      1459647.015      1413118.877
10 0 59761  4500.000000 0      6442011.320      1100996.502      2689324.911
10 0 59761  4680.000000 0      5870693.741       714152.531      3867140.492
10 0 59761  4860.000000 0      5076002.012       319312.785      4903555.153
10 0 59761  5040.000000 0      4086957.740       -63698.759      5760790.068
10 0 59761  5220.000000 0      2940088.784      -416366.895      6407653.086
10 0 59761  5400.000000 0      1678036.454      -722329.222      6820630.636
10 0 59761  5580.000000 0       347952.590      -968097.332      6984700.437
10 0 59761  5760.000000 0     -1000262.953     -1143630.292      6893846.545
10 0 59761  5940.000000 0     -2315818.547     -1242738.843      6551266.513
10 0 59761  6120.000000 0     -3548922.827     -1263305.799      5969275.646
10 0 59761  6300.000000 0     -4652664.930     -1207316.906      5168913.363
10 0 59761  6480.000000 0     -5584827.918     -1080704.265      4179239.526
10 0 59761  6660.000000 0     -6309555.785      -893001.686      3036324.559
10 0 59761  6840.000000 0     -6798799.916      -656823.913      1781964.119
10 0 59761  7020.000000 0     -7033484.316      -387192.287       462152.309
10 0 59761  7200.000000 0     -7004313.429      -100738.373      -874640.882
10 0 59761  7380.000000 0     -6712170.258       185174.580     -2179306.400
10 0 59761  7560.000000 0     -6168083.811       453364.108     -3403959.161
10 0 59761  7740.000000 0     -5392771.587       687726.423     -4503747.779
10 0 59761  7920.000000 0     -4415775.303       874072.830     -5438522.922
10 0 59761  8100.000000 0     -3274251.679      1000859.426     -6174291.145
10 0 59761  8280.000000 0     -2011488.430      1059775.128     -6684408.505
10 0 59761  8460.000000 0      -675219.039      1046166.396     -6950486.718
10 0 59761  8640.000000 0       684194.410       959285.833     -6962996.401
10 0 59761  8820.000000 0      2015642.288       802356.007     -6721571.808
10 0 59761  9000.000000 0      3269169.560       582447.788     -6235016.422
10 0 59761  9180.000000 0      4397835.518       310177.185     -5520997.495
10 0 59761  9360.000000 0      5359469.733         -770.571     -4605443.257
10 0 59761  9540.000000 0      6118273.715      -334272.010     -3521650.804
10 0 59761  9720.000000 0      6646201.272      -672529.700     -2309114.632
10 0 59761  9900.000000 0      6924055.783      -996938.246     -1012108.489
10 0 59761 10080.000000 0      6942244.799     -1289009.908       321937.955
10 0 59761 10260.000000 0      6701147.326     -1531313.895      1644201.360
10 0 59761 10440.000000 0      6211070.192     -1708381.832      2906292.314
10 0 59761 10620.000000 0      5491791.707     -1807529.039      4062066.003
10 0 59761 10800.000000 0      4571718.785     -1819549.574      5069329.518
10 0 59761 10980.000000 0      3486712.220     -1739250.455      5891376.872
10 0 59761 11160.000000 0      2278641.082     -1565801.605      6498301.570
10 0 59761 11340.000000 0       993734.032     -1302890.346      6868042.243
10 0 59761 11520.000000 0      -319200.893      -958674.358      6987142.324
10 0 59761 11700.000000 0     -1610622.635      -545533.244      6851208.124
10 0 59761 11880.000000 0     -2832106.279       -79628.810      6465064.719
10 0 59761 12060.000000 0     -3938144.501       419715.148      5842610.829
10 0 59761 12240.000000 0     -4887852.091       930794.701      5006368.086
10 0 59761 12420.000000 0     -5646514.830      1430444.507      3986720.941
10 0 59761 12600.000000 0     -6186917.667      1895061.183      2820857.172
10 0 59761 12780.000000 0     -6490390.827      2301687.398      1551436.070
10 0 59761 12960.000000 0     -6547524.123      2629106.530       225022.225
10 0 59761 13140.000000 0     -6358499.936      2858891.203     -1109661.949
10 0 59761 13320.000000 0     -5933019.185      2976345.886     -2403584.208
10 0 59761 13500.000000 0     -5289822.079      2971294.207     -3609267.222
10 0 59761 13680.000000 0     -4455826.287      2838665.126     -4682579.614
10 0 59761 13860.000000 0     -3464939.261      2578849.709     -5584367.409
10 0 59761 14040.000000 0     -2356617.263      2197817.027     -6281861.465
10 0 59761 14220.000000 0     -1174248.362      1706990.798     -6749823.708
10 0 59761 14400.000000 0        36571.669      1122893.111     -6971400.811
10 0 59761 14580.000000 0      1229793.241       466576.213     -6938675.063
10 0 59761 14760.000000 0      2360646.052      -237136.764     -6652918.029
10 0 59761 14940.000000 0      3387301.078      -960582.902     -6124535.588
10 0 59761 15120.000000 0      4272406.283     -1674330.349     -5372709.635
10 0 59761 15300.000000 0      4984452.372     -2348357.842     -4424745.683
10 0 59761 15480.000000 0      5498923.912     -2953306.796     -3315129.670
10 0 59761 15660.000000 0      5799185.551     -3461751.215     -2084310.919
10 0 59761 15840.000000 0      5877061.669     -3849428.760      -777242.354
10 0 59761 16020.000000 0      5733074.429     -4096373.628       558270.830
10 0 59761 16200.000000 0      5376323.273     -4187892.855      1873350.677
10 0 59761 16380.000000 0      4824004.460     -4115330.824      3119878.787
10 0 59761 16560.000000 0      4100596.193     -3876576.177      4252291.551
10 0 59761 16740.000000 0      3236760.851     -3476294.444      5229261.464
10 0 59761 16920.000000 0      2268017.662     -2925875.333      6015198.953
10 0 59761 17100.000000 0      1233258.161     -2243099.830      6581518.668
10 0 59761 17280.000000 0       173171.999     -1451549.423      6907634.961
10 0 59761 17460.000000 0      -871350.269      -579782.949      6981667.504
10 0 59761 17640.000000 0     -1860779.737       339691.210      6800848.338
10 0 59761 17820.000000 0     -2758430.540      1271614.931      6371626.693
10 0 59761 18000.000000 0     -3531816.188      2179316.919      5709467.845
10 0 59761 18180.000000 0     -4153840.020      3026146.227      4838346.898
10 0 59761 18360.000000 0     -4603779.631      3776957.461      3789936.192
10 0 59761 18540.000000 0     -4868022.752      4399587.333      2602496.731
10 0 59761 18720.000000 0     -4940516.265      4866260.248      1319501.081
10 0 59761 18900.000000 0     -4822899.762      5154851.646       -11971.603
10 0 59761 19080.000000 0     -4524314.348      5249935.614     -1343004.538
10 0 59761 19260.000000 0     -4060887.701      5143562.052     -2624704.402
10 0 59761 19440.000000 0     -3454916.077      4835711.190     -3810060.704
10 0 59761 19620.000000 0     -2733796.150      4334403.474     -4855712.416
10 0 59761 19800.000000 0     -1928769.508      3655468.902     -5723539.074
10 0 59761 19980.000000 0     -1073552.727      2822002.795     -6382025.269
10 0 59761 20160.000000 0      -202913.785      1863530.859     -6807360.547
10 0 59761 20340.000000 0       648740.142       814927.378     -6984240.717
10 0 59761 20520.000000 0      1448708.302      -284865.275     -6906368.618
10 0 59761 20700.000000 0      2167236.392     -1394277.222     -6576648.753
10 0 59761 20880.000000 0      2778607.834     -2470664.244     -6007075.255
10 0 59761 21060.000000 0      3262059.646     -3471927.289     -5218325.179
10 0 59761 21240.000000 0      3602497.384     -4358158.925     -4239054.354
10 0 59761 21420.000000 0      3790974.965     -5093245.387     -3104898.313
10 0 59761 21600.000000 0      3824926.133     -5646363.758     -1857214.515
10 0 59761 21780.000000 0      3708132.565     -5993310.435      -541586.166
10 0 59761 21960.000000 0      3450421.551     -6117583.965       793859.623
99
